[{"OBJECT_NAME":"CMS-01","OBJECT_ID":"2020-099A","EPOCH":"2026-04-04T21:42:28.420704","MEAN_MOTION":1.00272651,"ECCENTRICITY":0.00053194,"INCLINATION":0.0998,"RA_OF_ASC_NODE":91.2101,"ARG_OF_PERICENTER":203.5382,"MEAN_ANOMALY":307.0694,"EPHEMERIS_TYPE":0,"CLASSIFICATION_TYPE":"U","NORAD_CAT_ID":47256,"ELEMENT_SET_NO":999,"REV_AT_EPOCH":1946,"BSTAR":0,"MEAN_MOTION_DOT":-1.64e-6,"MEAN_MOTION_DDOT":0},{"OBJECT_NAME":"TURKSAT 5A","OBJECT_ID":"2021-001A","EPOCH":"2026-04-04T20:42:38.824704","MEAN_MOTION":1.00273682,"ECCENTRICITY":7.08e-6,"INCLINATION":0.0195,"RA_OF_ASC_NODE":152.2219,"ARG_OF_PERICENTER":305.3178,"MEAN_ANOMALY":77.2062,"EPHEMERIS_TYPE":0,"CLASSIFICATION_TYPE":"U","NORAD_CAT_ID":47306,"ELEMENT_SET_NO":999,"REV_AT_EPOCH":1923,"BSTAR":0,"MEAN_MOTION_DOT":1.55e-6,"MEAN_MOTION_DDOT":0},{"OBJECT_NAME":"TIANTONG-1 3","OBJECT_ID":"2021-003A","EPOCH":"2026-04-04T21:43:52.080096","MEAN_MOTION":1.00273774,"ECCENTRICITY":0.00032818,"INCLINATION":1.8208,"RA_OF_ASC_NODE":334.9259,"ARG_OF_PERICENTER":42.5497,"MEAN_ANOMALY":223.2201,"EPHEMERIS_TYPE":0,"CLASSIFICATION_TYPE":"U","NORAD_CAT_ID":47321,"ELEMENT_SET_NO":999,"REV_AT_EPOCH":1922,"BSTAR":0,"MEAN_MOTION_DOT":-1.56e-6,"MEAN_MOTION_DDOT":0},{"OBJECT_NAME":"TJS-6","OBJECT_ID":"2021-010A","EPOCH":"2026-04-04T20:28:46.924896","MEAN_MOTION":1.00274083,"ECCENTRICITY":0.00034947,"INCLINATION":0.4115,"RA_OF_ASC_NODE":89.1582,"ARG_OF_PERICENTER":304.6981,"MEAN_ANOMALY":284.9916,"EPHEMERIS_TYPE":0,"CLASSIFICATION_TYPE":"U","NORAD_CAT_ID":47613,"ELEMENT_SET_NO":999,"REV_AT_EPOCH":1907,"BSTAR":0,"MEAN_MOTION_DOT":4.4e-7,"MEAN_MOTION_DDOT":0},{"OBJECT_NAME":"SBIRS GEO-5 (USA 315)","OBJECT_ID":"2021-042A","EPOCH":"2026-04-04T22:18:13.438944","MEAN_MOTION":1.0027227,"ECCENTRICITY":0.00014871,"INCLINATION":5.1975,"RA_OF_ASC_NODE":328.5673,"ARG_OF_PERICENTER":54.7636,"MEAN_ANOMALY":238.2439,"EPHEMERIS_TYPE":0,"CLASSIFICATION_TYPE":"U","NORAD_CAT_ID":48618,"ELEMENT_SET_NO":999,"REV_AT_EPOCH":1803,"BSTAR":0,"MEAN_MOTION_DOT":-2.71e-6,"MEAN_MOTION_DDOT":0},{"OBJECT_NAME":"FENGYUN 4B","OBJECT_ID":"2021-047A","EPOCH":"2026-04-04T22:07:30.952992","MEAN_MOTION":1.00265337,"ECCENTRICITY":0.00061419,"INCLINATION":0.0506,"RA_OF_ASC_NODE":299.4509,"ARG_OF_PERICENTER":81.9542,"MEAN_ANOMALY":248.311,"EPHEMERIS_TYPE":0,"CLASSIFICATION_TYPE":"U","NORAD_CAT_ID":48808,"ELEMENT_SET_NO":999,"REV_AT_EPOCH":1783,"BSTAR":0,"MEAN_MOTION_DOT":-3.28e-6,"MEAN_MOTION_DDOT":0},{"OBJECT_NAME":"SXM-8","OBJECT_ID":"2021-049A","EPOCH":"2026-04-04T20:56:21.780384","MEAN_MOTION":1.00271301,"ECCENTRICITY":0.0004727,"INCLINATION":0.0377,"RA_OF_ASC_NODE":43.6011,"ARG_OF_PERICENTER":357.8925,"MEAN_ANOMALY":20.6211,"EPHEMERIS_TYPE":0,"CLASSIFICATION_TYPE":"U","NORAD_CAT_ID":48838,"ELEMENT_SET_NO":999,"REV_AT_EPOCH":1785,"BSTAR":0,"MEAN_MOTION_DOT":-2.05e-6,"MEAN_MOTION_DDOT":0},{"OBJECT_NAME":"TIANLIAN 1-05","OBJECT_ID":"2021-063A","EPOCH":"2026-04-04T21:25:24.666240","MEAN_MOTION":1.00273693,"ECCENTRICITY":0.00033805,"INCLINATION":1.4048,"RA_OF_ASC_NODE":81.2585,"ARG_OF_PERICENTER":251.7495,"MEAN_ANOMALY":198.3061,"EPHEMERIS_TYPE":0,"CLASSIFICATION_TYPE":"U","NORAD_CAT_ID":49011,"ELEMENT_SET_NO":999,"REV_AT_EPOCH":1734,"BSTAR":0,"MEAN_MOTION_DOT":1.09e-6,"MEAN_MOTION_DDOT":0},{"OBJECT_NAME":"STAR ONE D2","OBJECT_ID":"2021-069A","EPOCH":"2026-04-04T12:27:15.050016","MEAN_MOTION":1.00268527,"ECCENTRICITY":8.55e-5,"INCLINATION":0.0235,"RA_OF_ASC_NODE":178.5121,"ARG_OF_PERICENTER":213.8942,"MEAN_ANOMALY":277.1696,"EPHEMERIS_TYPE":0,"CLASSIFICATION_TYPE":"U","NORAD_CAT_ID":49055,"ELEMENT_SET_NO":999,"REV_AT_EPOCH":1720,"BSTAR":0,"MEAN_MOTION_DOT":0,"MEAN_MOTION_DDOT":0},{"OBJECT_NAME":"EUTELSAT QUANTUM","OBJECT_ID":"2021-069B","EPOCH":"2026-04-04T21:34:15.501792","MEAN_MOTION":1.00270522,"ECCENTRICITY":0.00022755,"INCLINATION":0.0058,"RA_OF_ASC_NODE":237.1056,"ARG_OF_PERICENTER":136.7546,"MEAN_ANOMALY":190.6026,"EPHEMERIS_TYPE":0,"CLASSIFICATION_TYPE":"U","NORAD_CAT_ID":49056,"ELEMENT_SET_NO":999,"REV_AT_EPOCH":1719,"BSTAR":0,"MEAN_MOTION_DOT":1.27e-6,"MEAN_MOTION_DDOT":0},{"OBJECT_NAME":"ZHONGXING-2E","OBJECT_ID":"2021-071A","EPOCH":"2026-04-04T21:48:36.624672","MEAN_MOTION":1.00272226,"ECCENTRICITY":0.0001695,"INCLINATION":0.008,"RA_OF_ASC_NODE":69.1502,"ARG_OF_PERICENTER":59.7428,"MEAN_ANOMALY":129.5353,"EPHEMERIS_TYPE":0,"CLASSIFICATION_TYPE":"U","NORAD_CAT_ID":49062,"ELEMENT_SET_NO":999,"REV_AT_EPOCH":1730,"BSTAR":0,"MEAN_MOTION_DOT":0,"MEAN_MOTION_DDOT":0},{"OBJECT_NAME":"TJS-7","OBJECT_ID":"2021-077A","EPOCH":"2026-04-04T22:34:54.685344","MEAN_MOTION":1.00272054,"ECCENTRICITY":0.0002243,"INCLINATION":0.3202,"RA_OF_ASC_NODE":86.9587,"ARG_OF_PERICENTER":294.2989,"MEAN_ANOMALY":51.2599,"EPHEMERIS_TYPE":0,"CLASSIFICATION_TYPE":"U","NORAD_CAT_ID":49115,"ELEMENT_SET_NO":999,"REV_AT_EPOCH":881,"BSTAR":0,"MEAN_MOTION_DOT":-1.23e-6,"MEAN_MOTION_DDOT":0},{"OBJECT_NAME":"CHINASAT 9B","OBJECT_ID":"2021-080A","EPOCH":"2026-04-04T14:58:46.108992","MEAN_MOTION":1.00270388,"ECCENTRICITY":0.0001986,"INCLINATION":0.0166,"RA_OF_ASC_NODE":219.2672,"ARG_OF_PERICENTER":139.7046,"MEAN_ANOMALY":160.0727,"EPHEMERIS_TYPE":0,"CLASSIFICATION_TYPE":"U","NORAD_CAT_ID":49125,"ELEMENT_SET_NO":999,"REV_AT_EPOCH":1691,"BSTAR":0,"MEAN_MOTION_DOT":-3.12e-6,"MEAN_MOTION_DDOT":0},{"OBJECT_NAME":"SHIJIAN-21 (SJ-21)","OBJECT_ID":"2021-094A","EPOCH":"2026-04-04T22:57:11.969856","MEAN_MOTION":1.00273072,"ECCENTRICITY":0.00474925,"INCLINATION":4.9404,"RA_OF_ASC_NODE":61.5873,"ARG_OF_PERICENTER":169.9738,"MEAN_ANOMALY":73.9928,"EPHEMERIS_TYPE":0,"CLASSIFICATION_TYPE":"U","NORAD_CAT_ID":49330,"ELEMENT_SET_NO":999,"REV_AT_EPOCH":462,"BSTAR":0,"MEAN_MOTION_DOT":-3.45e-6,"MEAN_MOTION_DDOT":0},{"OBJECT_NAME":"SES-17","OBJECT_ID":"2021-095A","EPOCH":"2026-04-04T21:01:26.965056","MEAN_MOTION":1.00270657,"ECCENTRICITY":0.00011094,"INCLINATION":0.0227,"RA_OF_ASC_NODE":75.864,"ARG_OF_PERICENTER":305.8644,"MEAN_ANOMALY":59.7221,"EPHEMERIS_TYPE":0,"CLASSIFICATION_TYPE":"U","NORAD_CAT_ID":49332,"ELEMENT_SET_NO":999,"REV_AT_EPOCH":1711,"BSTAR":0,"MEAN_MOTION_DOT":-2.71e-6,"MEAN_MOTION_DDOT":0},{"OBJECT_NAME":"SYRACUSE 4A","OBJECT_ID":"2021-095B","EPOCH":"2026-04-04T20:26:38.677056","MEAN_MOTION":1.00266765,"ECCENTRICITY":0.0001369,"INCLINATION":0.019,"RA_OF_ASC_NODE":239.1801,"ARG_OF_PERICENTER":130.1918,"MEAN_ANOMALY":175.9623,"EPHEMERIS_TYPE":0,"CLASSIFICATION_TYPE":"U","NORAD_CAT_ID":49333,"ELEMENT_SET_NO":999,"REV_AT_EPOCH":1721,"BSTAR":0,"MEAN_MOTION_DOT":1.36e-6,"MEAN_MOTION_DDOT":0},{"OBJECT_NAME":"QZS-1R (MICHIBIKI-1R)","OBJECT_ID":"2021-096A","EPOCH":"2026-04-04T20:13:58.363104","MEAN_MOTION":1.00280925,"ECCENTRICITY":0.07500711,"INCLINATION":37.3118,"RA_OF_ASC_NODE":80.6625,"ARG_OF_PERICENTER":270.3917,"MEAN_ANOMALY":281.055,"EPHEMERIS_TYPE":0,"CLASSIFICATION_TYPE":"U","NORAD_CAT_ID":49336,"ELEMENT_SET_NO":999,"REV_AT_EPOCH":1627,"BSTAR":0,"MEAN_MOTION_DOT":-2.41e-6,"MEAN_MOTION_DDOT":0}]
