CMS-01                  
1 47256U 20099A   26094.90449561 -.00000164  00000+0  00000+0 0  9993
2 47256   0.0998  91.2101 0005319 203.5382 307.0694  1.00272651 19460
TURKSAT 5A              
1 47306U 21001A   26094.86294936  .00000155  00000+0  00000+0 0  9991
2 47306   0.0195 152.2219 0000070 305.3178  77.2062  1.00273682 19231
TIANTONG-1 3            
1 47321U 21003A   26094.90546389 -.00000156  00000+0  00000+0 0  9999
2 47321   1.8208 334.9259 0003281  42.5497 223.2201  1.00273774 19225
TJS-6                   
1 47613U 21010A   26094.85332089  .00000044  00000+0  00000+0 0  9990
2 47613   0.4115  89.1582 0003494 304.6981 284.9916  1.00274083 19079
SBIRS GEO-5 (USA 315)   
1 48618U 21042A   26094.92932221 -.00000271  00000+0  00000+0 0  9996
2 48618   5.1975 328.5673 0001487  54.7636 238.2439  1.00272270 18035
FENGYUN 4B              
1 48808U 21047A   26094.92188603 -.00000328  00000+0  00000+0 0  9992
2 48808   0.0506 299.4509 0006141  81.9542 248.3110  1.00265337 17835
SXM-8                   
1 48838U 21049A   26094.87247431 -.00000205  00000+0  00000+0 0  9990
2 48838   0.0377  43.6011 0004727 357.8925  20.6211  1.00271301 17852
TIANLIAN 1-05           
1 49011U 21063A   26094.89264660  .00000109  00000+0  00000+0 0  9997
2 49011   1.4048  81.2585 0003380 251.7495 198.3061  1.00273693 17344
STAR ONE D2             
1 49055U 21069A   26094.51892419  .00000000  00000+0  00000+0 0  9999
2 49055   0.0235 178.5121 0000855 213.8942 277.1696  1.00268527 17206
EUTELSAT QUANTUM        
1 49056U 21069B   26094.89879053  .00000127  00000+0  00000+0 0  9990
2 49056   0.0058 237.1056 0002275 136.7546 190.6026  1.00270522 17192
ZHONGXING-2E            
1 49062U 21071A   26094.90875723  .00000000  00000+0  00000+0 0  9992
2 49062   0.0080  69.1502 0001695  59.7428 129.5353  1.00272226 17301
TJS-7                   
1 49115U 21077A   26094.94091071 -.00000123  00000+0  00000+0 0  9994
2 49115   0.3202  86.9587 0002243 294.2989  51.2599  1.00272054  8815
CHINASAT 9B             
1 49125U 21080A   26094.62414478 -.00000312  00000+0  00000+0 0  9994
2 49125   0.0166 219.2672 0001986 139.7046 160.0727  1.00270388 16918
SHIJIAN-21 (SJ-21)      
1 49330U 21094A   26094.95638854 -.00000345  00000+0  00000+0 0  9995
2 49330   4.9404  61.5873 0047492 169.9738  73.9928  1.00273072  4623
SES-17                  
1 49332U 21095A   26094.87600654 -.00000271  00000+0  00000+0 0  9994
2 49332   0.0227  75.8640 0001109 305.8644  59.7221  1.00270657 17119
SYRACUSE 4A             
1 49333U 21095B   26094.85183654  .00000136  00000+0  00000+0 0  9998
2 49333   0.0190 239.1801 0001369 130.1918 175.9623  1.00266765 17217
QZS-1R (MICHIBIKI-1R)   
1 49336U 21096A   26094.84303661 -.00000241  00000+0  00000+0 0  9991
2 49336  37.3118  80.6625 0750071 270.3917 281.0550  1.00280925 16270
